STARLINK-32659          
1 62427U 24249U   26185.23136728  .00028620  00000+0  10449-2 0  9993
2 62427  43.0003  16.2150 0000443   3.3891 356.6963 15.27598975 85631
STARLINK-32614          
1 62428U 24249V   26184.95743741  .00024867  00000+0  90948-3 0  9993
2 62428  43.0036  25.3813 0001482 271.4665  88.6017 15.27602898 85504
STARLINK-32418          
1 62429U 24249W   26184.94283585  .00023057  00000+0  84425-3 0  9991
2 62429  43.0014  17.4815 0001923 276.9122  83.1511 15.27600344 85595
STARLINK-32702          
1 62432U 24251A   26185.17821101  .00041560  00000+0  14063-2 0  9995
2 62432  53.1602 151.3668 0001227  78.3162 281.7977 15.30226122 85823
STARLINK-32712          
1 62433U 24251B   26184.34244246  .00019032  00000+0  65268-3 0  9996
2 62433  53.1578 158.2297 0001222  82.7051 277.4088 15.30218603 85652
STARLINK-32674          
1 62434U 24251C   26185.18165349  .00037315  00000+0  11100-2 0  9995
2 62434  53.1619 153.5236 0000445  66.9422 293.1628 15.34401056 85792
STARLINK-32711          
1 62435U 24251D   26185.18835293  .00024999  00000+0  85303-3 0  9999
2 62435  53.1596 154.2677 0001000  81.5137 278.5977 15.30211074 85786
STARLINK-32697          
1 62436U 24251E   26185.17569621  .00046617  00000+0  15753-2 0  9990
2 62436  53.1597 154.1908 0001687  94.4807 265.6387 15.30217853 85785
STARLINK-32693          
1 62437U 24251F   26184.54583046  .00355474  00000+0  11117-1 0  9991
2 62437  53.1569 154.4565 0001208 148.4844 211.6230 15.31157530 85725
STARLINK-32721          
1 62438U 24251G   26184.93584038  .00038647  00000+0  11488-2 0  9999
2 62438  53.1586 154.8249 0001948  90.4789 269.6437 15.34407299 85694
STARLINK-32709          
1 62439U 24251H   26185.20058825  .00029208  00000+0  87199-3 0  9997
2 62439  53.1593 153.6388 0000675  76.1153 283.9925 15.34408225 85798
STARLINK-32689          
1 62440U 24251J   26185.18796630  .00031292  00000+0  93309-3 0  9995
2 62440  53.1615 153.5580 0001828  88.2592 271.8620 15.34409886 85792
STARLINK-32724          
1 62441U 24251K   26185.18375802  .00029745  00000+0  88775-3 0  9991
2 62441  53.1610 153.5351 0000893  69.4035 290.7063 15.34408263 85630
STARLINK-32291          
1 62442U 24251L   26185.17885870  .00025783  00000+0  87901-3 0  9990
2 62442  53.1606 154.2066 0001300  87.7957 272.3193 15.30222316 85478
STARLINK-32736          
1 62443U 24251M   26185.18624071  .00028215  00000+0  96089-3 0  9996
2 62443  53.1607 154.2557 0000626  50.5085 309.5971 15.30208249 85628
STARLINK-32737          
1 62444U 24251N   26185.20422159  .00030370  00000+0  90588-3 0  9996
2 62444  53.1599 151.5267 0000676  42.7690 317.3365 15.34415798 85826
STARLINK-32683          
1 62445U 24251P   26185.18585581  .00028422  00000+0  84875-3 0  9990
2 62445  53.1597 153.5400 0000623  82.4058 277.7015 15.34414308 85790
STARLINK-32726          
1 62446U 24251Q   26185.19006635  .00032304  00000+0  96261-3 0  9996
2 62446  53.1603 153.5687 0001210  85.9174 274.1967 15.34416122 85485
STARLINK-32719          
1 62448U 24251S   26184.90436882  .00032834  00000+0  97811-3 0  9997
2 62448  53.1602 155.1954 0001820  96.3289 263.7921 15.34417375 85576
STARLINK-32723          
1 62449U 24251T   26185.17744444  .00051924  00000+0  15359-2 0  9991
2 62449  53.1598 153.4919 0001199  98.9112 261.2026 15.34428813 85630
STARLINK-32722          
1 62450U 24251U   26185.20269426  .00043965  00000+0  13044-2 0  9994
2 62450  53.1607 153.6448 0000435  83.3788 276.7264 15.34408628 85425
STARLINK-32720          
1 62451U 24251V   26184.93163003  .00037585  00000+0  11174-2 0  9991
2 62451  53.1590 154.8025 0000719  45.5064 314.5997 15.34414236 85384
STARLINK-32656          
1 62452U 24251W   26184.93373530  .00038913  00000+0  11566-2 0  9991
2 62452  53.1590 154.8116 0001349  89.7851 270.3306 15.34407329 85591
STARLINK-32690          
1 62453U 24251X   26185.20479498  .00028035  00000+0  83761-3 0  9994
2 62453  53.1609 153.6599 0000741  98.8479 261.2607 15.34405555 85410
STARLINK-11518 [DTC]    
1 62462U 24254A   26185.21714082  .00213718  00000+0  16244-2 0  9994
2 62462  43.0003 240.9822 0003502 294.3206  65.7296 15.70868268 87736
STARLINK-11455 [DTC]    
1 62463U 24254B   26185.22244584  .00221799  00000+0  16846-2 0  9997
2 62463  42.9991 241.0227 0003521 292.2615  67.7879 15.70860649 87727
STARLINK-11178 [DTC]    
1 62465U 24254D   26185.20652044  .00259107  00000+0  19501-2 0  9996
2 62465  42.9991 240.8980 0001961 270.7340  89.3303 15.70966867 87567
STARLINK-11506 [DTC]    
1 62466U 24254E   26184.59180757  .00172701  00000+0  13209-2 0  9998
2 62466  42.9986 244.0024 0002001 359.5472   0.5393 15.70851771 87476
STARLINK-11486 [DTC]    
1 62467U 24254F   26185.14824537  .00250251  00000+0  18865-2 0  9992
2 62467  42.9996 241.3222 0001413 278.1879  81.8828 15.70955676 87712
STARLINK-11511 [DTC]    
1 62468U 24254G   26185.19059072  .00272558  00000+0  20508-2 0  9993
2 62468  42.9989 240.7662 0001424 265.1245  94.9460 15.70931890 87721
