OBJECT_NAME,OBJECT_ID,EPOCH,MEAN_MOTION,ECCENTRICITY,INCLINATION,RA_OF_ASC_NODE,ARG_OF_PERICENTER,MEAN_ANOMALY,EPHEMERIS_TYPE,CLASSIFICATION_TYPE,NORAD_CAT_ID,ELEMENT_SET_NO,REV_AT_EPOCH,BSTAR,MEAN_MOTION_DOT,MEAN_MOTION_DDOT
STARLINK-32659,2024-249U,2026-07-04T05:33:10.132992,15.27598975,.0000443,43.0003,16.2150,3.3891,356.6963,0,U,62427,999,8563,.10449081E-2,.2862E-3,0
STARLINK-32614,2024-249V,2026-07-03T22:58:42.592224,15.27602898,.00014828,43.0036,25.3813,271.4665,88.6017,0,U,62428,999,8550,.90947988E-3,.24867E-3,0
STARLINK-32418,2024-249W,2026-07-03T22:37:41.017440,15.27600344,.00019236,43.0014,17.4815,276.9122,83.1511,0,U,62429,999,8559,.84425252E-3,.23057E-3,0
STARLINK-32702,2024-251A,2026-07-04T04:16:37.431264,15.30226122,.00012276,53.1602,151.3668,78.3162,281.7977,0,U,62432,999,8582,.1406348E-2,.4156E-3,0
STARLINK-32712,2024-251B,2026-07-03T08:13:07.028544,15.30218603,.00012223,53.1578,158.2297,82.7051,277.4088,0,U,62433,999,8565,.65268386E-3,.19032E-3,0
STARLINK-32674,2024-251C,2026-07-04T04:21:34.861536,15.34401056,.0000445,53.1619,153.5236,66.9422,293.1628,0,U,62434,999,8579,.11100046E-2,.37315E-3,0
STARLINK-32711,2024-251D,2026-07-04T04:31:13.693152,15.30211074,.00010007,53.1596,154.2677,81.5137,278.5977,0,U,62435,999,8578,.85303433E-3,.24999E-3,0
STARLINK-32697,2024-251E,2026-07-04T04:13:00.152544,15.30217853,.0001687,53.1597,154.1908,94.4807,265.6387,0,U,62436,999,8578,.15753168E-2,.46617E-3,0
STARLINK-32693,2024-251F,2026-07-03T13:05:59.751744,15.31157530,.00012088,53.1569,154.4565,148.4844,211.6230,0,U,62437,999,8572,.11116653E-1,.355474E-2,0
STARLINK-32721,2024-251G,2026-07-03T22:27:36.608832,15.34407299,.00019486,53.1586,154.8249,90.4789,269.6437,0,U,62438,999,8569,.11487848E-2,.38647E-3,0
STARLINK-32709,2024-251H,2026-07-04T04:48:50.824800,15.34408225,.0000675,53.1593,153.6388,76.1153,283.9925,0,U,62439,999,8579,.87199492E-3,.29208E-3,0
STARLINK-32689,2024-251J,2026-07-04T04:30:40.288320,15.34409886,.00018289,53.1615,153.5580,88.2592,271.8620,0,U,62440,999,8579,.93309094E-3,.31292E-3,0
STARLINK-32724,2024-251K,2026-07-04T04:24:36.692928,15.34408263,.00008937,53.1610,153.5351,69.4035,290.7063,0,U,62441,999,8563,.88775157E-3,.29745E-3,0
STARLINK-32291,2024-251L,2026-07-04T04:17:33.391680,15.30222316,.00013007,53.1606,154.2066,87.7957,272.3193,0,U,62442,999,8547,.87900988E-3,.25783E-3,0
STARLINK-32736,2024-251M,2026-07-04T04:28:11.197344,15.30208249,.00006261,53.1607,154.2557,50.5085,309.5971,0,U,62443,999,8562,.96088639E-3,.28215E-3,0
STARLINK-32737,2024-251N,2026-07-04T04:54:04.745376,15.34415798,.00006766,53.1599,151.5267,42.7690,317.3365,0,U,62444,999,8582,.90588466E-3,.3037E-3,0
STARLINK-32683,2024-251P,2026-07-04T04:27:37.941984,15.34414308,.00006234,53.1597,153.5400,82.4058,277.7015,0,U,62445,999,8579,.84874731E-3,.28422E-3,0
STARLINK-32726,2024-251Q,2026-07-04T04:33:41.732640,15.34416122,.00012106,53.1603,153.5687,85.9174,274.1967,0,U,62446,999,8548,.9626085E-3,.32304E-3,0
STARLINK-32719,2024-251S,2026-07-03T21:42:17.466048,15.34417375,.00018207,53.1602,155.1954,96.3289,263.7921,0,U,62448,999,8557,.97810926E-3,.32834E-3,0
STARLINK-32723,2024-251T,2026-07-04T04:15:31.199616,15.34428813,.00011997,53.1598,153.4919,98.9112,261.2026,0,U,62449,999,8563,.15359031E-2,.51924E-3,0
STARLINK-32722,2024-251U,2026-07-04T04:51:52.784064,15.34408628,.00004351,53.1607,153.6448,83.3788,276.7264,0,U,62450,999,8542,.13043903E-2,.43965E-3,0
STARLINK-32720,2024-251V,2026-07-03T22:21:32.834592,15.34414236,.00007197,53.1590,154.8025,45.5064,314.5997,0,U,62451,999,8538,.1117449E-2,.37585E-3,0
STARLINK-32656,2024-251W,2026-07-03T22:24:34.729920,15.34407329,.00013495,53.1590,154.8116,89.7851,270.3306,0,U,62452,999,8559,.1156599E-2,.38913E-3,0
STARLINK-32690,2024-251X,2026-07-04T04:54:54.286272,15.34405555,.00007411,53.1609,153.6599,98.8479,261.2607,0,U,62453,999,8541,.8376098E-3,.28035E-3,0
STARLINK-11518 [DTC],2024-254A,2026-07-04T05:12:40.966848,15.70868268,.00035027,43.0003,240.9822,294.3206,65.7296,0,U,62462,999,8773,.16244179E-2,.213718E-2,0
STARLINK-11455 [DTC],2024-254B,2026-07-04T05:20:19.320576,15.70860649,.00035217,42.9991,241.0227,292.2615,67.7879,0,U,62463,999,8772,.16845937E-2,.221799E-2,0
STARLINK-11178 [DTC],2024-254D,2026-07-04T04:57:23.366016,15.70966867,.00019613,42.9991,240.8980,270.7340,89.3303,0,U,62465,999,8756,.19500595E-2,.259107E-2,0
STARLINK-11506 [DTC],2024-254E,2026-07-03T14:12:12.174048,15.70851771,.00020012,42.9986,244.0024,359.5472,0.5393,0,U,62466,999,8747,.13209353E-2,.172701E-2,0
STARLINK-11486 [DTC],2024-254F,2026-07-04T03:33:28.399968,15.70955676,.0001413,42.9996,241.3222,278.1879,81.8828,0,U,62467,999,8771,.18864508E-2,.250251E-2,0
STARLINK-11511 [DTC],2024-254G,2026-07-04T04:34:27.038208,15.70931890,.00014244,42.9989,240.7662,265.1245,94.9460,0,U,62468,999,8772,.20507812E-2,.272558E-2,0
